KAZEOSAT1
1 39731U 14024A   18094.50050905 -.00000006  00000-0  11374-4 0  9997
2 39731  98.3906 174.2537 0001266  82.2105 277.9229 14.42022046206878
